[{"OBJECT_NAME":"STARLINK-1215","OBJECT_ID":"2020-012AZ","EPOCH":"2026-03-09T23:34:27.559488","MEAN_MOTION":15.30203883,"ECCENTRICITY":0.00013943,"INCLINATION":53.1616,"RA_OF_ASC_NODE":356.9455,"ARG_OF_PERICENTER":74.9207,"MEAN_ANOMALY":285.1948,"EPHEMERIS_TYPE":0,"CLASSIFICATION_TYPE":"U","NORAD_CAT_ID":45225,"ELEMENT_SET_NO":999,"REV_AT_EPOCH":33552,"BSTAR":0.00012456515,"MEAN_MOTION_DOT":3.332e-5,"MEAN_MOTION_DDOT":0},{"OBJECT_NAME":"SCS-01 D","OBJECT_ID":"2025-100D","EPOCH":"2026-03-09T18:08:45.040704","MEAN_MOTION":15.31902149,"ECCENTRICITY":0.00063457,"INCLINATION":97.373,"RA_OF_ASC_NODE":145.4097,"ARG_OF_PERICENTER":266.2302,"MEAN_ANOMALY":93.8214,"EPHEMERIS_TYPE":0,"CLASSIFICATION_TYPE":"U","NORAD_CAT_ID":63985,"ELEMENT_SET_NO":999,"REV_AT_EPOCH":4562,"BSTAR":0.0010528181,"MEAN_MOTION_DOT":0.00032471,"MEAN_MOTION_DDOT":0}]
